CCSDS_OMM_VERS = 2.0
CREATION_DATE  = 
ORIGINATOR     = 

OBJECT_NAME    = SL-3 R/B
OBJECT_ID      = 1988-032B
CENTER_NAME    = EARTH
REF_FRAME      = TEME
TIME_SYSTEM    = UTC
MEAN_ELEMENT_THEORY = SGP/SGP4

EPOCH          = 2026-03-23T05:28:32.530656
MEAN_MOTION    = 15.20055452
ECCENTRICITY   = .00257195
INCLINATION    = 97.5214
RA_OF_ASC_NODE = 65.4343
ARG_OF_PERICENTER = 182.6369
MEAN_ANOMALY   = 177.4735

EPHEMERIS_TYPE = 0
CLASSIFICATION_TYPE = U
NORAD_CAT_ID   = 19046
ELEMENT_SET_NO = 999
REV_AT_EPOCH   = 5416
BSTAR          = .28982799E-3
MEAN_MOTION_DOT = .6237E-4
MEAN_MOTION_DDOT = 0

CCSDS_OMM_VERS = 2.0
CREATION_DATE  = 
ORIGINATOR     = 

OBJECT_NAME    = SL-16 R/B
OBJECT_ID      = 1988-039B
CENTER_NAME    = EARTH
REF_FRAME      = TEME
TIME_SYSTEM    = UTC
MEAN_ELEMENT_THEORY = SGP/SGP4

EPOCH          = 2026-03-23T03:45:48.648384
MEAN_MOTION    = 14.19617698
ECCENTRICITY   = .00234154
INCLINATION    = 71.0157
RA_OF_ASC_NODE = 40.0694
ARG_OF_PERICENTER = 314.9337
MEAN_ANOMALY   = 44.9888

EPHEMERIS_TYPE = 0
CLASSIFICATION_TYPE = U
NORAD_CAT_ID   = 19120
ELEMENT_SET_NO = 999
REV_AT_EPOCH   = 96029
BSTAR          = -.15822475E-4
MEAN_MOTION_DOT = -.82E-6
MEAN_MOTION_DDOT = 0

CCSDS_OMM_VERS = 2.0
CREATION_DATE  = 
ORIGINATOR     = 

OBJECT_NAME    = COSMOS 1953
OBJECT_ID      = 1988-050A
CENTER_NAME    = EARTH
REF_FRAME      = TEME
TIME_SYSTEM    = UTC
MEAN_ELEMENT_THEORY = SGP/SGP4

EPOCH          = 2026-03-23T05:47:26.573856
MEAN_MOTION    = 15.28738863
ECCENTRICITY   = .00125722
INCLINATION    = 82.5081
RA_OF_ASC_NODE = 144.6167
ARG_OF_PERICENTER = 80.2703
MEAN_ANOMALY   = 279.9956

EPHEMERIS_TYPE = 0
CLASSIFICATION_TYPE = U
NORAD_CAT_ID   = 19210
ELEMENT_SET_NO = 999
REV_AT_EPOCH   = 3985
BSTAR          = .3288009E-3
MEAN_MOTION_DOT = .9239E-4
MEAN_MOTION_DDOT = 0

CCSDS_OMM_VERS = 2.0
CREATION_DATE  = 
ORIGINATOR     = 

OBJECT_NAME    = SL-8 R/B
OBJECT_ID      = 1988-053B
CENTER_NAME    = EARTH
REF_FRAME      = TEME
TIME_SYSTEM    = UTC
MEAN_ELEMENT_THEORY = SGP/SGP4

EPOCH          = 2026-03-23T05:11:39.347232
MEAN_MOTION    = 14.38924965
ECCENTRICITY   = .0021529
INCLINATION    = 74.0451
RA_OF_ASC_NODE = 87.5300
ARG_OF_PERICENTER = 265.0330
MEAN_ANOMALY   = 169.7080

EPHEMERIS_TYPE = 0
CLASSIFICATION_TYPE = U
NORAD_CAT_ID   = 19257
ELEMENT_SET_NO = 999
REV_AT_EPOCH   = 97854
BSTAR          = .11836109E-3
MEAN_MOTION_DOT = .339E-5
MEAN_MOTION_DDOT = 0

CCSDS_OMM_VERS = 2.0
CREATION_DATE  = 
ORIGINATOR     = 

OBJECT_NAME    = COSMOS 1975
OBJECT_ID      = 1988-093A
CENTER_NAME    = EARTH
REF_FRAME      = TEME
TIME_SYSTEM    = UTC
MEAN_ELEMENT_THEORY = SGP/SGP4

EPOCH          = 2026-03-23T00:24:56.310624
MEAN_MOTION    = 15.28243936
ECCENTRICITY   = .00131636
INCLINATION    = 82.5164
RA_OF_ASC_NODE = 104.3017
ARG_OF_PERICENTER = 120.1135
MEAN_ANOMALY   = 240.1411

EPHEMERIS_TYPE = 0
CLASSIFICATION_TYPE = U
NORAD_CAT_ID   = 19573
ELEMENT_SET_NO = 999
REV_AT_EPOCH   = 2144
BSTAR          = .3040259E-3
MEAN_MOTION_DOT = .8419E-4
MEAN_MOTION_DDOT = 0

CCSDS_OMM_VERS = 2.0
CREATION_DATE  = 
ORIGINATOR     = 

OBJECT_NAME    = SL-14 R/B
OBJECT_ID      = 1988-093B
CENTER_NAME    = EARTH
REF_FRAME      = TEME
TIME_SYSTEM    = UTC
MEAN_ELEMENT_THEORY = SGP/SGP4

EPOCH          = 2026-03-23T02:57:19.920672
MEAN_MOTION    = 14.85672338
ECCENTRICITY   = .0020626
INCLINATION    = 82.5331
RA_OF_ASC_NODE = 29.4344
ARG_OF_PERICENTER = 358.2753
MEAN_ANOMALY   = 12.4669

EPHEMERIS_TYPE = 0
CLASSIFICATION_TYPE = U
NORAD_CAT_ID   = 19574
ELEMENT_SET_NO = 999
REV_AT_EPOCH   = 301
BSTAR          = .70171869E-4
MEAN_MOTION_DOT = .634E-5
MEAN_MOTION_DDOT = 0

CCSDS_OMM_VERS = 2.0
CREATION_DATE  = 
ORIGINATOR     = 

OBJECT_NAME    = SL-16 R/B
OBJECT_ID      = 1988-102B
CENTER_NAME    = EARTH
REF_FRAME      = TEME
TIME_SYSTEM    = UTC
MEAN_ELEMENT_THEORY = SGP/SGP4

EPOCH          = 2026-03-23T04:25:20.378496
MEAN_MOTION    = 14.16155110
ECCENTRICITY   = .00148931
INCLINATION    = 70.9982
RA_OF_ASC_NODE = 123.1041
ARG_OF_PERICENTER = 340.7625
MEAN_ANOMALY   = 19.2934

EPHEMERIS_TYPE = 0
CLASSIFICATION_TYPE = U
NORAD_CAT_ID   = 19650
ELEMENT_SET_NO = 999
REV_AT_EPOCH   = 92880
BSTAR          = -.97091262E-4
MEAN_MOTION_DOT = -.24E-5
MEAN_MOTION_DDOT = 0

CCSDS_OMM_VERS = 2.0
CREATION_DATE  = 
ORIGINATOR     = 

OBJECT_NAME    = INTERCOSMOS 24
OBJECT_ID      = 1989-080A
CENTER_NAME    = EARTH
REF_FRAME      = TEME
TIME_SYSTEM    = UTC
MEAN_ELEMENT_THEORY = SGP/SGP4

EPOCH          = 2026-03-23T07:20:22.709760
MEAN_MOTION    = 12.59576112
ECCENTRICITY   = .1186748
INCLINATION    = 82.6014
RA_OF_ASC_NODE = 95.5348
ARG_OF_PERICENTER = 261.1852
MEAN_ANOMALY   = 85.3351

EPHEMERIS_TYPE = 0
CLASSIFICATION_TYPE = U
NORAD_CAT_ID   = 20261
ELEMENT_SET_NO = 999
REV_AT_EPOCH   = 66851
BSTAR          = .17014113E-3
MEAN_MOTION_DOT = .573E-5
MEAN_MOTION_DDOT = 0

CCSDS_OMM_VERS = 2.0
CREATION_DATE  = 
ORIGINATOR     = 

OBJECT_NAME    = SL-14 R/B
OBJECT_ID      = 1989-080C
CENTER_NAME    = EARTH
REF_FRAME      = TEME
TIME_SYSTEM    = UTC
MEAN_ELEMENT_THEORY = SGP/SGP4

EPOCH          = 2026-03-23T05:44:18.555360
MEAN_MOTION    = 12.50507425
ECCENTRICITY   = .1230851
INCLINATION    = 82.5966
RA_OF_ASC_NODE = 164.4918
ARG_OF_PERICENTER = 153.7936
MEAN_ANOMALY   = 213.1191

EPHEMERIS_TYPE = 0
CLASSIFICATION_TYPE = U
NORAD_CAT_ID   = 20262
ELEMENT_SET_NO = 999
REV_AT_EPOCH   = 66184
BSTAR          = .13065131E-3
MEAN_MOTION_DOT = .459E-5
MEAN_MOTION_DDOT = 0

CCSDS_OMM_VERS = 2.0
CREATION_DATE  = 
ORIGINATOR     = 

OBJECT_NAME    = DELTA 1 R/B
OBJECT_ID      = 1989-089B
CENTER_NAME    = EARTH
REF_FRAME      = TEME
TIME_SYSTEM    = UTC
MEAN_ELEMENT_THEORY = SGP/SGP4

EPOCH          = 2026-03-23T06:40:19.180992
MEAN_MOTION    = 14.50674109
ECCENTRICITY   = .00706843
INCLINATION    = 97.0695
RA_OF_ASC_NODE = 287.5543
ARG_OF_PERICENTER = 79.8979
MEAN_ANOMALY   = 281.0184

EPHEMERIS_TYPE = 0
CLASSIFICATION_TYPE = U
NORAD_CAT_ID   = 20323
ELEMENT_SET_NO = 999
REV_AT_EPOCH   = 89770
BSTAR          = .95352821E-4
MEAN_MOTION_DOT = .352E-5
MEAN_MOTION_DDOT = 0

CCSDS_OMM_VERS = 2.0
CREATION_DATE  = 
ORIGINATOR     = 

OBJECT_NAME    = ARIANE 40 R/B
OBJECT_ID      = 1990-005H
CENTER_NAME    = EARTH
REF_FRAME      = TEME
TIME_SYSTEM    = UTC
MEAN_ELEMENT_THEORY = SGP/SGP4

EPOCH          = 2026-03-23T00:24:11.824992
MEAN_MOTION    = 14.39878834
ECCENTRICITY   = .00106856
INCLINATION    = 98.3055
RA_OF_ASC_NODE = 142.2794
ARG_OF_PERICENTER = 158.7577
MEAN_ANOMALY   = 201.4058

EPHEMERIS_TYPE = 0
CLASSIFICATION_TYPE = U
NORAD_CAT_ID   = 20443
ELEMENT_SET_NO = 999
REV_AT_EPOCH   = 89472
BSTAR          = .10115019E-3
MEAN_MOTION_DOT = .276E-5
MEAN_MOTION_DDOT = 0

CCSDS_OMM_VERS = 2.0
CREATION_DATE  = 
ORIGINATOR     = 

OBJECT_NAME    = DELTA 2 R/B(1)
OBJECT_ID      = 1990-008B
CENTER_NAME    = EARTH
REF_FRAME      = TEME
TIME_SYSTEM    = UTC
MEAN_ELEMENT_THEORY = SGP/SGP4

EPOCH          = 2026-03-22T17:07:16.802688
MEAN_MOTION    = 15.57617714
ECCENTRICITY   = .00802734
INCLINATION    = 35.6030
RA_OF_ASC_NODE = 89.2719
ARG_OF_PERICENTER = 19.7585
MEAN_ANOMALY   = 340.6234

EPHEMERIS_TYPE = 0
CLASSIFICATION_TYPE = U
NORAD_CAT_ID   = 20453
ELEMENT_SET_NO = 999
REV_AT_EPOCH   = 92816
BSTAR          = .80398857E-3
MEAN_MOTION_DOT = .72023E-3
MEAN_MOTION_DDOT = 0

